[{"OBJECT_NAME":"STARLINK-31205","OBJECT_ID":"2024-038Z","EPOCH":"2026-03-09T22:20:46.705632","MEAN_MOTION":15.27579241,"ECCENTRICITY":0.00014319,"INCLINATION":43.0066,"RA_OF_ASC_NODE":22.331,"ARG_OF_PERICENTER":273.5775,"MEAN_ANOMALY":86.4913,"EPHEMERIS_TYPE":0,"CLASSIFICATION_TYPE":"U","NORAD_CAT_ID":59046,"ELEMENT_SET_NO":999,"REV_AT_EPOCH":11483,"BSTAR":-8.5618005e-5,"MEAN_MOTION_DOT":-2.617e-5,"MEAN_MOTION_DDOT":0},{"OBJECT_NAME":"TROLL","OBJECT_ID":"2025-009BB","EPOCH":"2026-03-09T05:24:19.835712","MEAN_MOTION":15.28164315,"ECCENTRICITY":0.00018165,"INCLINATION":97.3932,"RA_OF_ASC_NODE":150.7169,"ARG_OF_PERICENTER":59.185,"MEAN_ANOMALY":300.9568,"EPHEMERIS_TYPE":0,"CLASSIFICATION_TYPE":"U","NORAD_CAT_ID":62658,"ELEMENT_SET_NO":999,"REV_AT_EPOCH":11817,"BSTAR":0.00048220305,"MEAN_MOTION_DOT":0.00013174,"MEAN_MOTION_DDOT":0}]
